ONEWEB-0414             
1 50491U 21132Y   25229.43678205  .00000006  00000+0 -16620-4 0  9998
2 50491  87.9139  35.7587 0002056  92.9517 267.1850 13.18685501181590
ONEWEB-0417             
1 50492U 21132Z   25229.44503445 -.00000054  00000+0 -16851-3 0  9992
2 50492  87.9144  35.7891 0001817  99.6426 260.4911 13.18685676181577
ONEWEB-0418             
1 50493U 21132AA  25229.53064090  .00000058  00000+0  11320-3 0  9999
2 50493  87.9143  35.7580 0001904 104.0460 256.0884 13.18688012181643
ONEWEB-0419             
1 50494U 21132AB  25229.39717954  .00000051  00000+0  97018-4 0  9990
2 50494  87.9138  35.7863 0001600 101.4259 258.7053 13.18688148181548
ONEWEB-0420             
1 50495U 21132AC  25229.43842872  .00000012  00000+0 -27613-5 0  9997
2 50495  87.9141  35.7883 0001813  80.9310 279.2027 13.18685513181542
ONEWEB-0421             
1 50496U 21132AD  25229.20420692 -.00000009  00000+0 -55509-4 0  9996
2 50496  87.9141  35.8282 0002125  91.9807 268.1568 13.18685235181556
ONEWEB-0424             
1 50497U 21132AE  25229.39222876  .00000071  00000+0  14842-3 0  9992
2 50497  87.9142  35.7848 0001409  98.9918 261.1373 13.18687737181601
ONEWEB-0426             
1 50498U 21132AF  25229.20090424  .00000023  00000+0  24418-4 0  9993
2 50498  87.9138  35.8163 0002465 102.4741 257.6667 13.18685024181520
